STARLINK-35437          
1 66563U 25268G   25338.75002315 -.01937127  00000+0 -17733-1 0  9996
2 66563  42.9987 168.2803 0001629 266.2263  34.5340 15.69901983  3384
STARLINK-35358          
1 66564U 25268H   25338.75002315 -.01937340  00000+0 -17736-1 0  9997
2 66564  42.9986 168.2757 0001601 266.6639  36.0144 15.69901598  3339
STARLINK-35893          
1 66565U 25268J   25338.75002315 -.01932308  00000+0 -17686-1 0  9991
2 66565  42.9987 168.2706 0001647 266.0584  38.5392 15.69897490  3380
STARLINK-35871          
1 66566U 25268K   25338.75002315 -.01931496  00000+0 -17678-1 0  9990
2 66566  42.9987 168.2658 0001622 265.2427  41.2722 15.69896953  3388
STARLINK-35825          
1 66567U 25268L   25338.75002315 -.01935443  00000+0 -17718-1 0  9992
2 66567  42.9987 168.2612 0001645 268.4942  39.9377 15.69898801  3385
STARLINK-35803          
1 66568U 25268M   25338.75002315 -.01938749  00000+0 -17751-1 0  9992
2 66568  42.9987 168.2558 0001489 268.3953  41.9534 15.69901309  3388
STARLINK-35835          
1 66569U 25268N   25338.75002315 -.01938737  00000+0 -17750-1 0  9999
2 66569  42.9988 168.2513 0001620 266.9073  45.3566 15.69902128  3388
STARLINK-35834          
1 66570U 25268P   25338.75002315 -.01938013  00000+0 -17741-1 0  9998
2 66570  42.9986 168.2461 0001646 265.5935  48.5851 15.69903634  3385
STARLINK-35836          
1 66571U 25268Q   25338.75002315 -.01940112  00000+0 -17762-1 0  9995
2 66571  42.9986 168.2416 0001572 266.0223  50.0736 15.69904894  3389
STARLINK-35870          
1 66572U 25268R   25338.75002315 -.01937580  00000+0 -17737-1 0  9993
2 66572  42.9986 168.2379 0001605 263.5387  54.4747 15.69903133  3383
STARLINK-35650          
1 66573U 25268S   25338.75002315 -.01925642  00000+0 -17622-1 0  9993
2 66573  42.9986 168.2319 0001677 271.6892  48.2501 15.69890847  3384
STARLINK-35812          
1 66574U 25268T   25338.75002315 -.01935031  00000+0 -17714-1 0  9999
2 66574  42.9987 168.2266 0001650 268.3918  53.4606 15.69898051  3389
