CCSDS_OMM_VERS = 2.0
CREATION_DATE  = 
ORIGINATOR     = 

OBJECT_NAME    = STARLINK-35437
OBJECT_ID      = 2025-268G
CENTER_NAME    = EARTH
REF_FRAME      = TEME
TIME_SYSTEM    = UTC
MEAN_ELEMENT_THEORY = SGP/SGP4

EPOCH          = 2025-12-04T18:00:02.000160
MEAN_MOTION    = 15.69901983
ECCENTRICITY   = .0001629
INCLINATION    = 42.9987
RA_OF_ASC_NODE = 168.2803
ARG_OF_PERICENTER = 266.2263
MEAN_ANOMALY   = 34.5340

EPHEMERIS_TYPE = 0
CLASSIFICATION_TYPE = U
NORAD_CAT_ID   = 66563
ELEMENT_SET_NO = 999
REV_AT_EPOCH   = 338
BSTAR          = -.17733E-1
MEAN_MOTION_DOT = -.1937127E-1
MEAN_MOTION_DDOT = 0

CCSDS_OMM_VERS = 2.0
CREATION_DATE  = 
ORIGINATOR     = 

OBJECT_NAME    = STARLINK-35358
OBJECT_ID      = 2025-268H
CENTER_NAME    = EARTH
REF_FRAME      = TEME
TIME_SYSTEM    = UTC
MEAN_ELEMENT_THEORY = SGP/SGP4

EPOCH          = 2025-12-04T18:00:02.000160
MEAN_MOTION    = 15.69901598
ECCENTRICITY   = .0001601
INCLINATION    = 42.9986
RA_OF_ASC_NODE = 168.2757
ARG_OF_PERICENTER = 266.6639
MEAN_ANOMALY   = 36.0144

EPHEMERIS_TYPE = 0
CLASSIFICATION_TYPE = U
NORAD_CAT_ID   = 66564
ELEMENT_SET_NO = 999
REV_AT_EPOCH   = 333
BSTAR          = -.17736E-1
MEAN_MOTION_DOT = -.193734E-1
MEAN_MOTION_DDOT = 0

CCSDS_OMM_VERS = 2.0
CREATION_DATE  = 
ORIGINATOR     = 

OBJECT_NAME    = STARLINK-35893
OBJECT_ID      = 2025-268J
CENTER_NAME    = EARTH
REF_FRAME      = TEME
TIME_SYSTEM    = UTC
MEAN_ELEMENT_THEORY = SGP/SGP4

EPOCH          = 2025-12-04T18:00:02.000160
MEAN_MOTION    = 15.69897490
ECCENTRICITY   = .0001647
INCLINATION    = 42.9987
RA_OF_ASC_NODE = 168.2706
ARG_OF_PERICENTER = 266.0584
MEAN_ANOMALY   = 38.5392

EPHEMERIS_TYPE = 0
CLASSIFICATION_TYPE = U
NORAD_CAT_ID   = 66565
ELEMENT_SET_NO = 999
REV_AT_EPOCH   = 338
BSTAR          = -.17686E-1
MEAN_MOTION_DOT = -.1932308E-1
MEAN_MOTION_DDOT = 0

CCSDS_OMM_VERS = 2.0
CREATION_DATE  = 
ORIGINATOR     = 

OBJECT_NAME    = STARLINK-35871
OBJECT_ID      = 2025-268K
CENTER_NAME    = EARTH
REF_FRAME      = TEME
TIME_SYSTEM    = UTC
MEAN_ELEMENT_THEORY = SGP/SGP4

EPOCH          = 2025-12-04T18:00:02.000160
MEAN_MOTION    = 15.69896953
ECCENTRICITY   = .0001622
INCLINATION    = 42.9987
RA_OF_ASC_NODE = 168.2658
ARG_OF_PERICENTER = 265.2427
MEAN_ANOMALY   = 41.2722

EPHEMERIS_TYPE = 0
CLASSIFICATION_TYPE = U
NORAD_CAT_ID   = 66566
ELEMENT_SET_NO = 999
REV_AT_EPOCH   = 338
BSTAR          = -.17678E-1
MEAN_MOTION_DOT = -.1931496E-1
MEAN_MOTION_DDOT = 0

CCSDS_OMM_VERS = 2.0
CREATION_DATE  = 
ORIGINATOR     = 

OBJECT_NAME    = STARLINK-35825
OBJECT_ID      = 2025-268L
CENTER_NAME    = EARTH
REF_FRAME      = TEME
TIME_SYSTEM    = UTC
MEAN_ELEMENT_THEORY = SGP/SGP4

EPOCH          = 2025-12-04T18:00:02.000160
MEAN_MOTION    = 15.69898801
ECCENTRICITY   = .0001645
INCLINATION    = 42.9987
RA_OF_ASC_NODE = 168.2612
ARG_OF_PERICENTER = 268.4942
MEAN_ANOMALY   = 39.9377

EPHEMERIS_TYPE = 0
CLASSIFICATION_TYPE = U
NORAD_CAT_ID   = 66567
ELEMENT_SET_NO = 999
REV_AT_EPOCH   = 338
BSTAR          = -.17718E-1
MEAN_MOTION_DOT = -.1935443E-1
MEAN_MOTION_DDOT = 0

CCSDS_OMM_VERS = 2.0
CREATION_DATE  = 
ORIGINATOR     = 

OBJECT_NAME    = STARLINK-35803
OBJECT_ID      = 2025-268M
CENTER_NAME    = EARTH
REF_FRAME      = TEME
TIME_SYSTEM    = UTC
MEAN_ELEMENT_THEORY = SGP/SGP4

EPOCH          = 2025-12-04T18:00:02.000160
MEAN_MOTION    = 15.69901309
ECCENTRICITY   = .0001489
INCLINATION    = 42.9987
RA_OF_ASC_NODE = 168.2558
ARG_OF_PERICENTER = 268.3953
MEAN_ANOMALY   = 41.9534

EPHEMERIS_TYPE = 0
CLASSIFICATION_TYPE = U
NORAD_CAT_ID   = 66568
ELEMENT_SET_NO = 999
REV_AT_EPOCH   = 338
BSTAR          = -.17751E-1
MEAN_MOTION_DOT = -.1938749E-1
MEAN_MOTION_DDOT = 0

CCSDS_OMM_VERS = 2.0
CREATION_DATE  = 
ORIGINATOR     = 

OBJECT_NAME    = STARLINK-35835
OBJECT_ID      = 2025-268N
CENTER_NAME    = EARTH
REF_FRAME      = TEME
TIME_SYSTEM    = UTC
MEAN_ELEMENT_THEORY = SGP/SGP4

EPOCH          = 2025-12-04T18:00:02.000160
MEAN_MOTION    = 15.69902128
ECCENTRICITY   = .000162
INCLINATION    = 42.9988
RA_OF_ASC_NODE = 168.2513
ARG_OF_PERICENTER = 266.9073
MEAN_ANOMALY   = 45.3566

EPHEMERIS_TYPE = 0
CLASSIFICATION_TYPE = U
NORAD_CAT_ID   = 66569
ELEMENT_SET_NO = 999
REV_AT_EPOCH   = 338
BSTAR          = -.1775E-1
MEAN_MOTION_DOT = -.1938737E-1
MEAN_MOTION_DDOT = 0

CCSDS_OMM_VERS = 2.0
CREATION_DATE  = 
ORIGINATOR     = 

OBJECT_NAME    = STARLINK-35834
OBJECT_ID      = 2025-268P
CENTER_NAME    = EARTH
REF_FRAME      = TEME
TIME_SYSTEM    = UTC
MEAN_ELEMENT_THEORY = SGP/SGP4

EPOCH          = 2025-12-04T18:00:02.000160
MEAN_MOTION    = 15.69903634
ECCENTRICITY   = .0001646
INCLINATION    = 42.9986
RA_OF_ASC_NODE = 168.2461
ARG_OF_PERICENTER = 265.5935
MEAN_ANOMALY   = 48.5851

EPHEMERIS_TYPE = 0
CLASSIFICATION_TYPE = U
NORAD_CAT_ID   = 66570
ELEMENT_SET_NO = 999
REV_AT_EPOCH   = 338
BSTAR          = -.17741E-1
MEAN_MOTION_DOT = -.1938013E-1
MEAN_MOTION_DDOT = 0

CCSDS_OMM_VERS = 2.0
CREATION_DATE  = 
ORIGINATOR     = 

OBJECT_NAME    = STARLINK-35836
OBJECT_ID      = 2025-268Q
CENTER_NAME    = EARTH
REF_FRAME      = TEME
TIME_SYSTEM    = UTC
MEAN_ELEMENT_THEORY = SGP/SGP4

EPOCH          = 2025-12-04T18:00:02.000160
MEAN_MOTION    = 15.69904894
ECCENTRICITY   = .0001572
INCLINATION    = 42.9986
RA_OF_ASC_NODE = 168.2416
ARG_OF_PERICENTER = 266.0223
MEAN_ANOMALY   = 50.0736

EPHEMERIS_TYPE = 0
CLASSIFICATION_TYPE = U
NORAD_CAT_ID   = 66571
ELEMENT_SET_NO = 999
REV_AT_EPOCH   = 338
BSTAR          = -.17762E-1
MEAN_MOTION_DOT = -.1940112E-1
MEAN_MOTION_DDOT = 0

CCSDS_OMM_VERS = 2.0
CREATION_DATE  = 
ORIGINATOR     = 

OBJECT_NAME    = STARLINK-35870
OBJECT_ID      = 2025-268R
CENTER_NAME    = EARTH
REF_FRAME      = TEME
TIME_SYSTEM    = UTC
MEAN_ELEMENT_THEORY = SGP/SGP4

EPOCH          = 2025-12-04T18:00:02.000160
MEAN_MOTION    = 15.69903133
ECCENTRICITY   = .0001605
INCLINATION    = 42.9986
RA_OF_ASC_NODE = 168.2379
ARG_OF_PERICENTER = 263.5387
MEAN_ANOMALY   = 54.4747

EPHEMERIS_TYPE = 0
CLASSIFICATION_TYPE = U
NORAD_CAT_ID   = 66572
ELEMENT_SET_NO = 999
REV_AT_EPOCH   = 338
BSTAR          = -.17737E-1
MEAN_MOTION_DOT = -.193758E-1
MEAN_MOTION_DDOT = 0

CCSDS_OMM_VERS = 2.0
CREATION_DATE  = 
ORIGINATOR     = 

OBJECT_NAME    = STARLINK-35650
OBJECT_ID      = 2025-268S
CENTER_NAME    = EARTH
REF_FRAME      = TEME
TIME_SYSTEM    = UTC
MEAN_ELEMENT_THEORY = SGP/SGP4

EPOCH          = 2025-12-04T18:00:02.000160
MEAN_MOTION    = 15.69890847
ECCENTRICITY   = .0001677
INCLINATION    = 42.9986
RA_OF_ASC_NODE = 168.2319
ARG_OF_PERICENTER = 271.6892
MEAN_ANOMALY   = 48.2501

EPHEMERIS_TYPE = 0
CLASSIFICATION_TYPE = U
NORAD_CAT_ID   = 66573
ELEMENT_SET_NO = 999
REV_AT_EPOCH   = 338
BSTAR          = -.17622E-1
MEAN_MOTION_DOT = -.1925642E-1
MEAN_MOTION_DDOT = 0

CCSDS_OMM_VERS = 2.0
CREATION_DATE  = 
ORIGINATOR     = 

OBJECT_NAME    = STARLINK-35812
OBJECT_ID      = 2025-268T
CENTER_NAME    = EARTH
REF_FRAME      = TEME
TIME_SYSTEM    = UTC
MEAN_ELEMENT_THEORY = SGP/SGP4

EPOCH          = 2025-12-04T18:00:02.000160
MEAN_MOTION    = 15.69898051
ECCENTRICITY   = .000165
INCLINATION    = 42.9987
RA_OF_ASC_NODE = 168.2266
ARG_OF_PERICENTER = 268.3918
MEAN_ANOMALY   = 53.4606

EPHEMERIS_TYPE = 0
CLASSIFICATION_TYPE = U
NORAD_CAT_ID   = 66574
ELEMENT_SET_NO = 999
REV_AT_EPOCH   = 338
BSTAR          = -.17714E-1
MEAN_MOTION_DOT = -.1935031E-1
MEAN_MOTION_DDOT = 0

